[{"OBJECT_NAME":"LEMUR-1","OBJECT_ID":"2014-033AL","EPOCH":"2026-03-04T23:43:38.433792","MEAN_MOTION":14.84770245,"ECCENTRICITY":0.00497726,"INCLINATION":97.7705,"RA_OF_ASC_NODE":216.2298,"ARG_OF_PERICENTER":60.9986,"MEAN_ANOMALY":299.6204,"EPHEMERIS_TYPE":0,"CLASSIFICATION_TYPE":"U","NORAD_CAT_ID":40044,"ELEMENT_SET_NO":999,"REV_AT_EPOCH":63000,"BSTAR":0.00038196186,"MEAN_MOTION_DOT":3.257e-5,"MEAN_MOTION_DDOT":0},{"OBJECT_NAME":"LEMUR-2-GREENBERG","OBJECT_ID":"2017-042N","EPOCH":"2026-03-05T06:29:29.480640","MEAN_MOTION":15.27772407,"ECCENTRICITY":0.00094052,"INCLINATION":97.3765,"RA_OF_ASC_NODE":245.6523,"ARG_OF_PERICENTER":18.8849,"MEAN_ANOMALY":341.2738,"EPHEMERIS_TYPE":0,"CLASSIFICATION_TYPE":"U","NORAD_CAT_ID":42837,"ELEMENT_SET_NO":999,"REV_AT_EPOCH":47250,"BSTAR":0.00082746507,"MEAN_MOTION_DOT":0.00022445,"MEAN_MOTION_DDOT":0},{"OBJECT_NAME":"LEMUR-2-ANDIS","OBJECT_ID":"2017-042P","EPOCH":"2026-03-05T01:09:03.602304","MEAN_MOTION":15.30297494,"ECCENTRICITY":0.00093478,"INCLINATION":97.3645,"RA_OF_ASC_NODE":245.3189,"ARG_OF_PERICENTER":19.8345,"MEAN_ANOMALY":340.3257,"EPHEMERIS_TYPE":0,"CLASSIFICATION_TYPE":"U","NORAD_CAT_ID":42838,"ELEMENT_SET_NO":999,"REV_AT_EPOCH":47250,"BSTAR":0.00092811175,"MEAN_MOTION_DOT":0.00027226,"MEAN_MOTION_DDOT":0},{"OBJECT_NAME":"LEMUR-2-MONSON","OBJECT_ID":"2017-042Q","EPOCH":"2026-03-05T06:17:39.645888","MEAN_MOTION":15.24811132,"ECCENTRICITY":0.00067926,"INCLINATION":97.4021,"RA_OF_ASC_NODE":245.7515,"ARG_OF_PERICENTER":8.1016,"MEAN_ANOMALY":352.0331,"EPHEMERIS_TYPE":0,"CLASSIFICATION_TYPE":"U","NORAD_CAT_ID":42839,"ELEMENT_SET_NO":999,"REV_AT_EPOCH":47231,"BSTAR":0.00082151386,"MEAN_MOTION_DOT":0.00020362,"MEAN_MOTION_DDOT":0},{"OBJECT_NAME":"LEMUR-2-FURIAUS","OBJECT_ID":"2017-042R","EPOCH":"2026-03-05T05:46:25.961664","MEAN_MOTION":15.25982825,"ECCENTRICITY":0.00075788,"INCLINATION":97.3738,"RA_OF_ASC_NODE":243.8405,"ARG_OF_PERICENTER":72.7161,"MEAN_ANOMALY":287.4907,"EPHEMERIS_TYPE":0,"CLASSIFICATION_TYPE":"U","NORAD_CAT_ID":42840,"ELEMENT_SET_NO":999,"REV_AT_EPOCH":47233,"BSTAR":0.0011595744,"MEAN_MOTION_DOT":0.00029841,"MEAN_MOTION_DDOT":0},{"OBJECT_NAME":"LEMUR-2-PETERG","OBJECT_ID":"2017-042S","EPOCH":"2026-03-04T10:40:22.835136","MEAN_MOTION":15.2935267,"ECCENTRICITY":0.00039285,"INCLINATION":97.3968,"RA_OF_ASC_NODE":248.6477,"ARG_OF_PERICENTER":0.2671,"MEAN_ANOMALY":359.8571,"EPHEMERIS_TYPE":0,"CLASSIFICATION_TYPE":"U","NORAD_CAT_ID":42841,"ELEMENT_SET_NO":999,"REV_AT_EPOCH":47240,"BSTAR":0.0011148198,"MEAN_MOTION_DOT":0.00031767,"MEAN_MOTION_DDOT":0},{"OBJECT_NAME":"LEMUR-2-DEMBITZ","OBJECT_ID":"2017-042T","EPOCH":"2026-03-04T18:08:58.895808","MEAN_MOTION":15.26721403,"ECCENTRICITY":0.00072173,"INCLINATION":97.3795,"RA_OF_ASC_NODE":246.2594,"ARG_OF_PERICENTER":33.4972,"MEAN_ANOMALY":326.6722,"EPHEMERIS_TYPE":0,"CLASSIFICATION_TYPE":"U","NORAD_CAT_ID":42842,"ELEMENT_SET_NO":999,"REV_AT_EPOCH":47239,"BSTAR":0.00093267735,"MEAN_MOTION_DOT":0.00024509,"MEAN_MOTION_DDOT":0},{"OBJECT_NAME":"LEMUR-2-ZACHARY","OBJECT_ID":"2017-042W","EPOCH":"2026-03-05T01:03:51.255936","MEAN_MOTION":15.41584695,"ECCENTRICITY":0.0003764,"INCLINATION":97.3649,"RA_OF_ASC_NODE":254.095,"ARG_OF_PERICENTER":34.0665,"MEAN_ANOMALY":326.0823,"EPHEMERIS_TYPE":0,"CLASSIFICATION_TYPE":"U","NORAD_CAT_ID":42845,"ELEMENT_SET_NO":999,"REV_AT_EPOCH":47311,"BSTAR":0.0012550515,"MEAN_MOTION_DOT":0.00052981,"MEAN_MOTION_DDOT":0},{"OBJECT_NAME":"LEMUR-2-JIN-LUEN","OBJECT_ID":"2018-014C","EPOCH":"2026-03-05T05:22:51.344832","MEAN_MOTION":15.7680882,"ECCENTRICITY":0.00021117,"INCLINATION":97.5451,"RA_OF_ASC_NODE":354.0918,"ARG_OF_PERICENTER":124.2435,"MEAN_ANOMALY":235.903,"EPHEMERIS_TYPE":0,"CLASSIFICATION_TYPE":"U","NORAD_CAT_ID":43182,"ELEMENT_SET_NO":999,"REV_AT_EPOCH":44476,"BSTAR":0.0014398921,"MEAN_MOTION_DOT":0.0023684,"MEAN_MOTION_DDOT":0},{"OBJECT_NAME":"LEMUR-2-KADI","OBJECT_ID":"2018-014E","EPOCH":"2026-03-05T06:04:39.226656","MEAN_MOTION":15.6315243,"ECCENTRICITY":7.676e-5,"INCLINATION":97.4713,"RA_OF_ASC_NODE":348.6698,"ARG_OF_PERICENTER":66.4706,"MEAN_ANOMALY":293.6633,"EPHEMERIS_TYPE":0,"CLASSIFICATION_TYPE":"U","NORAD_CAT_ID":43184,"ELEMENT_SET_NO":999,"REV_AT_EPOCH":44469,"BSTAR":0.0011549103,"MEAN_MOTION_DOT":0.00106386,"MEAN_MOTION_DDOT":0},{"OBJECT_NAME":"LEMUR-2-AMANDA-SVANTE","OBJECT_ID":"2021-034B","EPOCH":"2026-03-05T04:38:11.147712","MEAN_MOTION":15.28140419,"ECCENTRICITY":0.00022243,"INCLINATION":97.5839,"RA_OF_ASC_NODE":140.1968,"ARG_OF_PERICENTER":217.9244,"MEAN_ANOMALY":142.1838,"EPHEMERIS_TYPE":0,"CLASSIFICATION_TYPE":"U","NORAD_CAT_ID":48269,"ELEMENT_SET_NO":999,"REV_AT_EPOCH":26514,"BSTAR":0.0012162782,"MEAN_MOTION_DOT":0.00033405,"MEAN_MOTION_DDOT":0},{"OBJECT_NAME":"LEMUR-2-SPECIAL-K","OBJECT_ID":"2021-034F","EPOCH":"2026-03-05T04:23:00.030336","MEAN_MOTION":15.44605954,"ECCENTRICITY":0.00014866,"INCLINATION":97.5723,"RA_OF_ASC_NODE":145.3016,"ARG_OF_PERICENTER":220.2252,"MEAN_ANOMALY":139.8886,"EPHEMERIS_TYPE":0,"CLASSIFICATION_TYPE":"U","NORAD_CAT_ID":48273,"ELEMENT_SET_NO":999,"REV_AT_EPOCH":26554,"BSTAR":0.0016941543,"MEAN_MOTION_DOT":0.00079425,"MEAN_MOTION_DDOT":0},{"OBJECT_NAME":"LEMUR-2-EMBRIONOVIS","OBJECT_ID":"2023-084AQ","EPOCH":"2026-03-05T02:33:38.414304","MEAN_MOTION":15.34549153,"ECCENTRICITY":0.00085524,"INCLINATION":97.6123,"RA_OF_ASC_NODE":204.6408,"ARG_OF_PERICENTER":330.6344,"MEAN_ANOMALY":29.4417,"EPHEMERIS_TYPE":0,"CLASSIFICATION_TYPE":"U","NORAD_CAT_ID":56970,"ELEMENT_SET_NO":999,"REV_AT_EPOCH":15170,"BSTAR":0.00031961628,"MEAN_MOTION_DOT":0.00010629,"MEAN_MOTION_DDOT":0},{"OBJECT_NAME":"LEMUR-2-MANO","OBJECT_ID":"2023-100E","EPOCH":"2026-03-05T06:36:15.071616","MEAN_MOTION":15.59405492,"ECCENTRICITY":0.00020169,"INCLINATION":99.4553,"RA_OF_ASC_NODE":85.3479,"ARG_OF_PERICENTER":59.9088,"MEAN_ANOMALY":300.2362,"EPHEMERIS_TYPE":0,"CLASSIFICATION_TYPE":"U","NORAD_CAT_ID":57390,"ELEMENT_SET_NO":999,"REV_AT_EPOCH":14579,"BSTAR":0.0018523718,"MEAN_MOTION_DOT":0.0014872,"MEAN_MOTION_DDOT":0},{"OBJECT_NAME":"LEMUR-2-DEVERILL-M-T","OBJECT_ID":"2023-100F","EPOCH":"2026-03-04T11:58:52.166496","MEAN_MOTION":15.34394977,"ECCENTRICITY":0.00085894,"INCLINATION":99.4572,"RA_OF_ASC_NODE":72.4828,"ARG_OF_PERICENTER":43.6,"MEAN_ANOMALY":316.5914,"EPHEMERIS_TYPE":0,"CLASSIFICATION_TYPE":"U","NORAD_CAT_ID":57391,"ELEMENT_SET_NO":999,"REV_AT_EPOCH":14516,"BSTAR":0.0012784434,"MEAN_MOTION_DOT":0.00042726,"MEAN_MOTION_DDOT":0},{"OBJECT_NAME":"LEMUR-2-BASS","OBJECT_ID":"2023-174D","EPOCH":"2026-03-05T05:03:11.220192","MEAN_MOTION":15.39567586,"ECCENTRICITY":0.00080214,"INCLINATION":97.389,"RA_OF_ASC_NODE":147.7328,"ARG_OF_PERICENTER":177.5453,"MEAN_ANOMALY":182.5833,"EPHEMERIS_TYPE":0,"CLASSIFICATION_TYPE":"U","NORAD_CAT_ID":58259,"ELEMENT_SET_NO":999,"REV_AT_EPOCH":12934,"BSTAR":0.00053898998,"MEAN_MOTION_DOT":0.00021172,"MEAN_MOTION_DDOT":0}]
