LEMUR-1                 
1 40044U 14033AL  26063.98863928  .00003257  00000+0  38196-3 0  9999
2 40044  97.7705 216.2298 0049772  60.9986 299.6204 14.84770245630009
LEMUR-2-GREENBERG       
1 42837U 17042N   26064.27048010  .00022445  00000+0  82747-3 0  9995
2 42837  97.3765 245.6523 0009405  18.8849 341.2738 15.27772407472504
LEMUR-2-ANDIS           
1 42838U 17042P   26064.04795836  .00027226  00000+0  92811-3 0  9991
2 42838  97.3645 245.3189 0009347  19.8345 340.3257 15.30297494472502
LEMUR-2-MONSON          
1 42839U 17042Q   26064.26226442  .00020362  00000+0  82151-3 0  9998
2 42839  97.4021 245.7515 0006792   8.1016 352.0331 15.24811132472312
LEMUR-2-FURIAUS         
1 42840U 17042R   26064.24057826  .00029841  00000+0  11596-2 0  9991
2 42840  97.3738 243.8405 0007578  72.7161 287.4907 15.25982825472337
LEMUR-2-PETERG          
1 42841U 17042S   26063.44470874  .00031767  00000+0  11148-2 0  9998
2 42841  97.3968 248.6477 0003928   0.2671 359.8571 15.29352670472404
LEMUR-2-DEMBITZ         
1 42842U 17042T   26063.75623722  .00024509  00000+0  93268-3 0  9995
2 42842  97.3795 246.2594 0007217  33.4972 326.6722 15.26721403472393
LEMUR-2-ZACHARY         
1 42845U 17042W   26064.04434324  .00052981  00000+0  12551-2 0  9999
2 42845  97.3649 254.0950 0003764  34.0665 326.0823 15.41584695473110
LEMUR-2-JIN-LUEN        
1 43182U 18014C   26064.22420538  .00236840  00000+0  14399-2 0  9996
2 43182  97.5451 354.0918 0002111 124.2435 235.9030 15.76808820444769
LEMUR-2-KADI            
1 43184U 18014E   26064.25323179  .00106386  00000+0  11549-2 0  9999
2 43184  97.4713 348.6698 0000767  66.4706 293.6633 15.63152430444695
LEMUR-2-AMANDA-SVANTE   
1 48269U 21034B   26064.19318458  .00033405  00000+0  12163-2 0  9995
2 48269  97.5839 140.1968 0002224 217.9244 142.1838 15.28140419265140
LEMUR-2-SPECIAL-K       
1 48273U 21034F   26064.18263924  .00079425  00000+0  16942-2 0  9997
2 48273  97.5723 145.3016 0001486 220.2252 139.8886 15.44605954265541
LEMUR-2-EMBRIONOVIS     
1 56970U 23084AQ  26064.10669461  .00010629  00000+0  31962-3 0  9996
2 56970  97.6123 204.6408 0008552 330.6344  29.4417 15.34549153151705
LEMUR-2-MANO            
1 57390U 23100E   26064.27517444  .00148720  00000+0  18524-2 0  9995
2 57390  99.4553  85.3479 0002016  59.9088 300.2362 15.59405492145791
LEMUR-2-DEVERILL-M-T    
1 57391U 23100F   26063.49921489  .00042726  00000+0  12784-2 0  9998
2 57391  99.4572  72.4828 0008589  43.6000 316.5914 15.34394977145165
LEMUR-2-BASS            
1 58259U 23174D   26064.21054653  .00021172  00000+0  53899-3 0  9999
2 58259  97.3890 147.7328 0008021 177.5453 182.5833 15.39567586129346
